E-ST@R-II               
1 41459U 16025D   22313.72446405  .00029594  00000+0  11624-2 0  9994
2 41459  98.1922 130.1090 0135571 135.0447 226.1839 15.17462690359498
AAUSAT 4                
1 41460U 16025E   22313.50391098  .00047524  00000+0  15374-2 0  9998
2 41460  98.1822 137.5940 0110603 106.5044 254.8407 15.26088787360008
BEESAT-4                
1 41619U 16040W   22313.86793190  .00027348  00000+0  78194-3 0  9991
2 41619  97.1983   0.8590 0006911 324.3484  35.7297 15.35924377343006
RAVAN                   
1 41849U 16067B   22313.89066349  .00007778  00000+0  59949-3 0  9999
2 41849  98.0073  95.2827 0016611 205.5242 154.5163 15.01806390327812
CELTEE 1                
1 41850U 16067C   22313.85861953  .00004826  00000+0  40144-3 0  9999
2 41850  98.0170  89.7603 0008393 197.6657 162.4274 14.99166742327537
OPTICUBE 04             
1 41851U 16067D   22313.84725796  .00002899  00000+0  24917-3 0  9991
2 41851  98.0161  88.6010 0008435 209.6679 150.4065 14.98242749327472
AEROCUBE 8D             
1 41852U 16067E   22313.85454238  .00005347  00000+0  44422-3 0  9997
2 41852  98.0143  88.7499 0009124 202.5664 157.5158 14.99160732327470
AEROCUBE 8C             
1 41853U 16067F   22313.83835023  .00004891  00000+0  40703-3 0  9992
2 41853  98.0131  88.5428 0010116 216.3193 143.7343 14.99131580327462
PROMETHEUS 2-1          
1 41854U 16067G   22313.87596660  .00008517  00000+0  67244-3 0  9996
2 41854  98.0283  90.0093 0016164 224.0235 135.9702 15.00863707327546
PROMETHEUS 2-3          
1 41855U 16067H   22313.86710101  .00008641  00000+0  68277-3 0  9999
2 41855  98.0259  90.0591 0012845 247.3544 112.6320 15.00868394327541
INS-1B                  
1 41954U 17008G   22313.38646089  .00027558  00000+0  78673-3 0  9994
2 41954  97.2392  10.4918 0008110  79.8129 280.4030 15.35962662318954
BGUSAT                  
1 41999U 17008BD  22312.40070190  .00078344  00000+0  12245-2 0  9990
2 41999  97.2645  23.1421 0004083  73.3800 286.7901 15.53511839318877
DIDO-2                  
1 42000U 17008BE  22313.13959939  .00011918  00000+0  40148-3 0  9990
2 42000  97.2392   8.8291 0008712 101.8293 258.3926 15.30861368318187
PEASSS                  
1 42015U 17008BV  22313.61545730  .00022271  00000+0  64636-3 0  9991
2 42015  97.2454  14.0218 0006300  92.0503 268.1462 15.35500171319010
AL-FARABI 1             
1 42016U 17008BW  22313.17087370  .00039008  00000+0  97075-3 0  9993
2 42016  97.2531  17.4840 0005226  90.0335 270.1510 15.40153538319274
NAYIF-1 (EO-88)         
1 42017U 17008BX  22313.75456408  .00035184  00000+0  86817-3 0  9993
2 42017  97.2516  18.0961 0005482  88.2588 271.9287 15.40433149319394
UCLSAT                  
1 42765U 17036A   22313.84368373  .00022535  00000+0  69150-3 0  9994
2 42765  97.1798 352.1452 0009353 153.0002 207.1730 15.33711859300107
LITUANICASAT-2          
1 42768U 17036D   22313.88786309  .00058894  00000+0  12302-2 0  9997
2 42768  97.1857 356.7363 0009656 134.1579 226.0466 15.45266045299627
AALTO-1                 
1 42775U 17036L   22313.88915398  .00011171  00000+0  41249-3 0  9997
2 42775  97.1817 346.2564 0012329 161.4065 198.7628 15.27837534298960
URSA MAIOR              
1 42776U 17036M   22313.61158983  .00014318  00000+0  51525-3 0  9992
2 42776  97.1831 346.8818 0011984 160.5249 199.6451 15.28631543298962
COMPASS 2               
1 42777U 17036N   22313.86302666  .00036954  00000+0  96094-3 0  9999
2 42777  97.1859 355.1457 0009725 139.4981 220.6991 15.38784831299452
DIAMOND RED             
1 42783U 17036U   22313.84164423  .00015992  00000+0  54774-3 0  9999
2 42783  97.1828 349.7350 0010326 161.9686 198.1923 15.30239745299159
PEGASUS                 
1 42784U 17036V   22313.86225015  .00019922  00000+0  63595-3 0  9995
2 42784  97.1818 351.2506 0010043 157.6237 202.5446 15.32469331299259
DIAMOND GREEN           
1 42785U 17036W   22313.84153926  .00016666  00000+0  56947-3 0  9990
2 42785  97.1831 349.8014 0010140 163.4599 196.6975 15.30309216299226
DIAMOND BLUE            
1 42786U 17036X   22313.84087437  .00016047  00000+0  54884-3 0  9995
2 42786  97.1828 349.7920 0010172 163.3821 196.7755 15.30285560299222
NUDTSAT                 
1 42787U 17036Y   22313.86886342  .00045660  00000+0  11219-2 0  9997
2 42787  97.1852 356.6851 0008909 141.5711 218.6716 15.40479054299428
SUCHAI                  
1 42788U 17036Z   22313.85214518  .00026271  00000+0  76805-3 0  9997
2 42788  97.1818 353.3367 0009323 150.9045 209.2720 15.35213797299450
SKCUBE                  
1 42789U 17036AA  22313.61167695  .00024540  00000+0  74695-3 0  9997
2 42789  97.1817 352.3662 0009490 152.9448 207.2292 15.33951225299298
VZLUSAT-1               
1 42790U 17036AB  22313.57121846  .00042713  00000+0  10617-2 0  9997
2 42790  97.1837 356.3161 0008232 141.8055 218.3777 15.40148398299528
ROBUSTA 1B              
1 42792U 17036AD  22313.57115058  .00026023  00000+0  77055-3 0  9993
2 42792  97.1820 353.0247 0008918 151.8325 208.3403 15.34817104299349
CICERO 6                
1 42793U 17036AE  22313.61701938  .00014630  00000+0  50677-3 0  9999
2 42793  97.1807 349.9904 0008969 161.2532 198.9042 15.29905054299248
CORVUS BC2              
1 42846U 17042X   22313.84501674  .00002758  00000+0  26805-3 0  9999
2 42846  97.4023 162.8243 0008159 223.2766 136.7814 14.93328331289970
CORVUS BC1              
1 42847U 17042Y   22313.84914758  .00002719  00000+0  26378-3 0  9993
2 42847  97.4024 163.1572 0007881 221.7059 138.3561 14.93406389289988
MIRATA                  
1 43015U 17073C   22313.23735944  .00014173  00000+0  98536-3 0  9998
2 43015  97.6554 203.1999 0233520  64.5131 298.0041 14.86076382268756
MAKERSAT 0              
1 43016U 17073D   22313.59333587  .00008869  00000+0  63785-3 0  9998
2 43016  97.6565 202.7312 0242477  69.0361 293.6615 14.83733328268697
CORVUS BC3              
1 43118U 18004H   22313.45927018  .00016090  00000+0  56003-3 0  9999
2 43118  97.3495  24.3788 0008202 199.9743 160.1178 15.29738294268361
MICROMAS-2A             
1 43131U 18004W   22313.48455758  .00059719  00000+0  12620-2 0  9995
2 43131  97.3642  33.7221 0005299 182.7329 177.3892 15.44954758268892
SPACEBEE-4              
1 43139U 18004AE  22313.43692712  .00287168  00000+0  22816-2 0  9990
2 43139  97.3713  41.6572 0004287 230.5072 129.5812 15.70371893269332
CICERO 7                
1 43143U 18004AJ  22313.44575284  .00025535  00000+0  67044-3 0  9991
2 43143  97.3633  32.3177 0005160 185.7421 174.3766 15.38599668268821
GOMX-4B                 
1 43196U 18015E   22313.87297673  .00011791  00000+0  41787-3 0  9996
2 43196  97.5534  94.9757 0015354 263.7704  96.1787 15.29151041265365
GOMX-4A                 
1 43197U 18015F   22313.81057458  .00017748  00000+0  58886-3 0  9992
2 43197  97.5522  96.1247 0015114 261.4387 204.8740 15.31196967265442
AEROCUBE 12A            
1 43556U 18046C   22313.86560002  .00041629  00000+0  83371-3 0  9996
2 43556  51.6338 192.0271 0008140 192.0932 167.9861 15.46290394241752
AEROCUBE 12B            
1 43557U 18046D   22313.85207169  .00028846  00000+0  65864-3 0  9991
2 43557  51.6348 199.3446 0008004 187.9547 172.1313 15.42602244241603
SURFSAT                 
1 43614U 18070B   22313.88118870  .00122584  00000+0  94709-3 0  9999
2 43614  93.0047 160.8903 0008308 134.0430 226.1527 15.71509679233759
CP7 (DAVE)              
1 43615U 18070C   22313.82105636  .00103847  00000+0  93336-3 0  9996
2 43615  93.0042 160.5117 0008837 140.1067 220.0854 15.67881987233688
CUBEBEL-1 (BSUSAT-1)    
1 43666U 18083E   22313.85337959  .00021498  00000+0  83180-3 0  9991
2 43666  97.4075 341.0517 0012769 172.1465 275.6198 15.26144724223631
CICERO 10               
1 43690U 18088A   22313.49817671  .00018472  00000+0  68431-3 0  9997
2 43690  85.0395 219.9062 0011785 344.7479  15.3409 15.27458487221876
IRVINE01                
1 43693U 18088D   22313.88327529  .00131778  00000+0  19764-2 0  9990
2 43693  85.0261 211.3613 0001920 333.3972  26.7189 15.54463351222655
PROXIMA I               
1 43694U 18088E   22313.23283804  .00018072  00000+0  63339-3 0  9996
2 43694  85.0329 216.4028 0013369 305.7174  54.2827 15.29256841222071
PROXIMA II              
1 43696U 18088G   22313.23569556  .00017609  00000+0  61799-3 0  9992
2 43696  85.0327 216.4268 0013462 305.8097  54.1897 15.29212049222063
FACSAT-1                
1 43721U 18096C   22313.83781791  .00056818  00000+0  12723-2 0  9990
2 43721  97.3412  33.9938 0011435 243.6816 255.6295 15.43194985220337
CENTAURI-2              
1 43722U 18096D   22313.46626961  .00077885  00000+0  13910-2 0  9993
2 43722  97.3463  36.6562 0010653 242.9685 117.0480 15.49711446220446
INNOSAT-2               
1 43738U 18096V   22313.89749988  .00479511  00000+0  23335-2 0  9996
2 43738  97.3523  47.7685 0011542 240.1760 258.3231 15.81082940221160
SIRION PATHFINDER-2     
1 43759U 18099B   22313.86144495  .00004379  00000+0  38537-3 0  9998
2 43759  97.6044  16.7439 0015295 129.5750 230.6826 14.96916552214799
CORVUS BC4              
1 43767U 18099K   22313.87363957  .00003545  00000+0  31786-3 0  9997
2 43767  97.6005  15.0496 0012523 133.8259 226.4001 14.96334166214718
MOVE-II                 
1 43780U 18099Y   22313.14120846  .00009460  00000+0  78185-3 0  9996
2 43780  97.6115  17.1950 0013902 136.4458 223.7866 14.99075026214725
SPACEBEE-7              
1 43816U 18099BL  22313.41347797  .00007391  00000+0  61751-3 0  9994
2 43816  97.6136  18.1802 0014318 121.7423 238.5197 14.98728835214358
SPACEBEE-5              
1 43817U 18099BM  22313.13160104  .00018434  00000+0  13292-2 0  9995
2 43817  97.6225  21.8747 0006479 121.0281 239.1581 15.04176433214499
SPACEBEE-6              
1 43818U 18099BN  22313.18591432  .00010469  00000+0  83892-3 0  9997
2 43818  97.6126  19.1667 0015130 130.6011 229.6532 15.00224289214525
